NORAD_CAT_ID,OBJECT_NAME,OBJECT_TYPE,EPOCH,MEAN_MOTION,ECCENTRICITY,INCLINATION,RA_OF_ASC_NODE,ARG_OF_PERICENTER,MEAN_ANOMALY,BSTAR,MEAN_MOTION_DOT,MEAN_MOTION_DDOT,TLE_LINE0,TLE_LINE1,TLE_LINE2,SEMIMAJOR_AXIS,PERIOD,APOGEE,PERIGEE,DECAYED
55762.0,STARLINK-5603,PAYLOAD,2024-06-04 09:53:15,14.98357758,0.0002945,70.0015,46.4997,273.2042,86.878,-0.00039676,-4.827e-05,0.0,0 STARLINK-5603,1 55762U 23028X   24156.41198539 -.00004827  00000-0 -39676-3 0  9995,2 55762  70.0015  46.4997 0002945 273.2042  86.8780 14.98357758 70178,6950.107,96.105,574.019,569.925,0.0
55762.0,STARLINK-5603,PAYLOAD,2024-06-04 16:17:48,14.98332249,0.0002739,70.0021,45.8274,261.6277,98.4571,-1.8205e-05,-3.1e-06,0.0,0 STARLINK-5603,1 55762U 23028X   24156.67903373 -.00000310  00000-0 -18205-4 0  9992,2 55762  70.0021  45.8274 0002739 261.6277  98.4571 14.98332249 70218,6950.186,96.107,573.955,570.147,0.0
55762.0,STARLINK-5603,PAYLOAD,2024-06-04 22:42:20,14.98336256,0.0002757,70.0019,45.1545,263.0202,97.0644,-3.6873e-05,-5.33e-06,0.0,0 STARLINK-5603,1 55762U 23028X   24156.94607096 -.00000533  00000-0 -36873-4 0  9993,2 55762  70.0019  45.1545 0002757 263.0202  97.0644 14.98336256 70255,6950.174,96.107,573.955,570.122,0.0
55762.0,STARLINK-5603,PAYLOAD,2024-06-05 09:55:17,14.9833006,0.0002996,70.0003,43.976,270.4829,89.5987,-5.3688e-05,-7.34e-06,0.0,0 STARLINK-5603,1 55762U 23028X   24157.41339476 -.00000734  00000-0 -53688-4 0  9996,2 55762  70.0003  43.9760 0002996 270.4829  89.5987 14.98330060 70326,6950.193,96.107,574.14,569.975,0.0
55762.0,STARLINK-5603,PAYLOAD,2024-06-05 16:19:49,14.98332867,0.0002856,69.9997,43.3003,266.2506,93.8326,-0.00013536,-1.708e-05,0.0,0 STARLINK-5603,1 55762U 23028X   24157.68043747 -.00001708  00000-0 -13536-3 0  9997,2 55762  69.9997  43.3003 0002856 266.2506  93.8326 14.98332867 70365,6950.184,96.107,574.034,570.064,0.0
55762.0,STARLINK-5603,PAYLOAD,2024-06-05 22:44:22,14.98326743,0.0002686,70.0022,42.6286,265.7257,94.3595,-6.0235e-05,-8.11e-06,0.0,0 STARLINK-5603,1 55762U 23028X   24157.94747836 -.00000811  00000-0 -60235-4 0  9999,2 55762  70.0022  42.6286 0002686 265.7257  94.3595 14.98326743 70405,6950.203,96.107,573.935,570.201,0.0
55762.0,STARLINK-5603,PAYLOAD,2024-06-06 09:57:18,14.98331954,0.0003046,69.9996,41.4494,269.7236,90.3574,-8.5503e-05,-1.113e-05,0.0,0 STARLINK-5603,1 55762U 23028X   24158.41479586 -.00001113  00000-0 -85503-4 0  9997,2 55762  69.9996  41.4494 0003046 269.7236  90.3574 14.98331954 70472,6950.187,96.107,574.169,569.935,0.0
55762.0,STARLINK-5603,PAYLOAD,2024-06-07 22:48:23,14.98334902,0.0003189,69.9933,37.5787,271.7893,88.2901,0.00011058,1.227e-05,0.0,0 STARLINK-5603,1 55762U 23028X   24159.95026750  .00001227  00000-0  11058-3 0  9995,2 55762  69.9933  37.5787 0003189 271.7893  88.2901 14.98334902 70706,6950.178,96.107,574.259,569.826,0.0
55762.0,STARLINK-5603,PAYLOAD,2024-06-08 03:36:46,14.9834157,0.0003096,70.0,37.0741,272.2193,87.8611,0.00018341,2.097e-05,0.0,0 STARLINK-5603,1 55762U 23028X   24160.15054079  .00002097  00000-0  18341-3 0  9992,2 55762  70.0000  37.0741 0003096 272.2193  87.8611 14.98341570 70730,6950.157,96.106,574.174,569.87,0.0
55762.0,STARLINK-5603,PAYLOAD,2024-06-08 22:50:24,14.98327486,0.0002948,70.0006,35.054,277.703,82.3794,-7.7193e-05,-1.014e-05,0.0,0 STARLINK-5603,1 55762U 23028X   24160.95167663 -.00001014  00000-0 -77193-4 0  9995,2 55762  70.0006  35.0540 0002948 277.7030  82.3794 14.98327486 70851,6950.201,96.107,574.115,570.017,0.0
55762.0,STARLINK-5603,PAYLOAD,2024-06-09 02:02:40,14.98330922,0.0002993,70.0011,34.7174,275.9292,84.1526,-3.9927e-05,-5.69e-06,0.0,0 STARLINK-5603,1 55762U 23028X   24161.08519320 -.00000569  00000-0 -39927-4 0  9998,2 55762  70.0011  34.7174 0002993 275.9292  84.1526 14.98330922 70870,6950.19,96.107,574.135,569.975,0.0
55762.0,STARLINK-5603,PAYLOAD,2024-06-09 14:51:45,14.98331188,0.0002492,70.0014,33.3711,275.6182,84.4692,-0.000104,-1.334e-05,0.0,0 STARLINK-5603,1 55762U 23028X   24161.61927629 -.00001334  00000-0 -10400-3 0  9997,2 55762  70.0014  33.3711 0002492 275.6182  84.4692 14.98331188 70955,6950.189,96.107,573.786,570.322,0.0
55762.0,STARLINK-5603,PAYLOAD,2024-06-09 22:52:25,14.98329324,0.0002713,70.0012,32.529,269.7278,90.357,-0.00015057,-1.889e-05,0.0,0 STARLINK-5603,1 55762U 23028X   24161.95307812 -.00001889  00000-0 -15057-3 0  9998,2 55762  70.0012  32.5290 0002713 269.7278  90.3570 14.98329324 71009,6950.195,96.107,573.946,570.174,0.0
55762.0,STARLINK-5603,PAYLOAD,2024-06-10 08:29:13,14.9836367,0.0002974,70.0009,31.5196,269.5337,90.5482,-0.00062241,-7.518e-05,0.0,0 STARLINK-5603,1 55762U 23028X   24162.35362638 -.00007518  00000-0 -62241-3 0  9992,2 55762  70.0009  31.5196 0002974 269.5337  90.5482 14.98363670 71064,6950.089,96.105,574.021,569.887,0.0
55762.0,STARLINK-5603,PAYLOAD,2024-06-10 21:18:18,14.98343601,0.0002935,70.0003,30.1728,257.1954,102.8877,-0.00014648,-1.841e-05,0.0,0 STARLINK-5603,1 55762U 23028X   24162.88771054 -.00001841  00000-0 -14648-3 0  9997,2 55762  70.0003  30.1728 0002935 257.1954 102.8877 14.98343601 71145,6950.151,96.106,574.056,569.976,0.0
55762.0,STARLINK-5603,PAYLOAD,2024-06-10 22:54:26,14.98329101,0.0002726,70.0002,30.0044,266.8215,93.2632,8.0123e-05,8.63e-06,0.0,0 STARLINK-5603,1 55762U 23028X   24162.95447228  .00000863  00000-0  80123-4 0  9991,2 55762  70.0002  30.0044 0002726 266.8215  93.2632 14.98329101 71151,6950.196,96.107,573.955,570.166,0.0
55762.0,STARLINK-5603,PAYLOAD,2024-06-11 00:30:34,14.98333707,0.0002776,70.0002,29.836,270.8545,89.2296,2.5263e-05,2.09e-06,0.0,0 STARLINK-5603,1 55762U 23028X   24163.02123140  .00000209  00000-0  25263-4 0  9992,2 55762  70.0002  29.8360 0002776 270.8545  89.2296 14.98333707 71163,6950.181,96.107,573.976,570.117,0.0
55762.0,STARLINK-5603,PAYLOAD,2024-06-12 00:32:35,14.98331716,0.0002945,70.0001,27.311,270.3737,89.7084,8.2828e-05,8.95e-06,0.0,0 STARLINK-5603,1 55762U 23028X   24164.02263013  .00000895  00000-0  82828-4 0  9998,2 55762  70.0001  27.3110 0002945 270.3737  89.7084 14.98331716 71319,6950.188,96.107,574.099,570.006,0.0
55762.0,STARLINK-5603,PAYLOAD,2024-06-12 19:46:12,14.98324274,0.0002969,70.0002,25.291,270.6366,89.4452,-6.0836e-05,-8.19e-06,0.0,0 STARLINK-5603,1 55762U 23028X   24164.82375947 -.00000819  00000-0 -60836-4 0  9999,2 55762  70.0002  25.2910 0002969 270.6366  89.4452 14.98324274 71432,6950.211,96.107,574.139,570.012,0.0
55762.0,STARLINK-5603,PAYLOAD,2024-06-12 21:22:20,14.98323199,0.0002957,70.0002,25.1227,270.269,89.813,-4.4599e-05,-6.25e-06,0.0,0 STARLINK-5603,1 55762U 23028X   24164.89051988 -.00000625  00000-0 -44599-4 0  9995,2 55762  70.0002  25.1227 0002957 270.2690  89.8130 14.98323199 71448,6950.214,96.107,574.134,570.024,0.0
55762.0,STARLINK-5603,PAYLOAD,2024-06-13 08:35:16,14.98336337,0.000284,70.0003,23.9446,271.5337,88.5497,-0.00011931,-1.516e-05,0.0,0 STARLINK-5603,1 55762U 23028X   24165.35783382 -.00001516  00000-0 -11931-3 0  9990,2 55762  70.0003  23.9446 0002840 271.5337  88.5497 14.98336337 71519,6950.173,96.107,574.012,570.064,0.0
55762.0,STARLINK-5603,PAYLOAD,2024-06-13 14:59:48,14.9833474,0.0002968,70.0001,23.2714,272.1154,87.9665,1.1941e-05,4.9e-07,0.0,0 STARLINK-5603,1 55762U 23028X   24165.62487129  .00000049  00000-0  11941-4 0  9990,2 55762  70.0001  23.2714 0002968 272.1154  87.9665 14.98334740 71553,6950.178,96.107,574.106,569.98,0.0
55762.0,STARLINK-5603,PAYLOAD,2024-06-13 21:24:21,14.98334004,0.000298,70.0002,22.5979,271.7476,88.3341,4.8729e-06,-3.5e-07,0.0,0 STARLINK-5603,1 55762U 23028X   24165.89191123 -.00000035  00000-0  48729-5 0  9996,2 55762  70.0002  22.5979 0002980 271.7476  88.3341 14.98334004 71598,6950.181,96.107,574.117,569.974,0.0
55762.0,STARLINK-5603,PAYLOAD,2024-06-14 15:01:49,14.98328058,0.000309,69.9999,20.7458,269.0888,90.9917,6.7824e-05,7.16e-06,0.0,0 STARLINK-5603,1 55762U 23028X   24166.62627178  .00000716  00000-0  67824-4 0  9993,2 55762  69.9999  20.7458 0003090 269.0888  90.9917 14.98328058 71705,6950.199,96.107,574.212,569.916,0.0
55762.0,STARLINK-5603,PAYLOAD,2024-06-14 21:26:22,14.98329758,0.000309,69.9999,20.0725,269.2493,90.8312,7.0494e-05,7.48e-06,0.0,0 STARLINK-5603,1 55762U 23028X   24166.89331072  .00000748  00000-0  70494-4 0  9999,2 55762  69.9999  20.0725 0003090 269.2493  90.8312 14.98329758 71749,6950.194,96.107,574.206,569.911,0.0
55762.0,STARLINK-5603,PAYLOAD,2024-06-15 07:03:10,14.98330975,0.0003026,70.0001,19.0624,270.2984,89.7828,1.0392e-05,3.1e-07,0.0,0 STARLINK-5603,1 55762U 23028X   24167.29387109  .00000031  00000-0  10392-4 0  9992,2 55762  70.0001  19.0624 0003026 270.2984  89.7828 14.98330975 71807,6950.19,96.107,574.158,569.952,0.0
55762.0,STARLINK-5603,PAYLOAD,2024-06-15 19:52:14,14.98332351,0.0002998,70.0001,17.7161,269.1158,90.9658,-4.4559e-05,-6.25e-06,0.0,0 STARLINK-5603,1 55762U 23028X   24167.82795113 -.00000625  00000-0 -44559-4 0  9992,2 55762  70.0001  17.7161 0002998 269.1158  90.9658 14.98332351 71888,6950.186,96.107,574.134,569.967,0.0
55762.0,STARLINK-5603,PAYLOAD,2024-06-16 07:05:11,14.98331782,0.00029,70.0002,16.5378,269.5038,90.5789,-1.6297e-05,-2.87e-06,0.0,0 STARLINK-5603,1 55762U 23028X   24168.29526993 -.00000287  00000-0 -16297-4 0  9994,2 55762  70.0002  16.5378 0002900 269.5038  90.5789 14.98331782 71956,6950.187,96.107,574.068,570.037,0.0
55762.0,STARLINK-5603,PAYLOAD,2024-06-16 21:30:23,14.9833051,0.000291,70.0001,15.0228,268.5598,91.5227,-3.1052e-05,-4.63e-06,0.0,0 STARLINK-5603,1 55762U 23028X   24168.89611009 -.00000463  00000-0 -31052-4 0  9995,2 55762  70.0001  15.0228 0002910 268.5598  91.5227 14.98330510 72041,6950.191,96.107,574.079,570.034,0.0
55762.0,STARLINK-5603,PAYLOAD,2024-06-17 19:56:16,14.98328951,0.0002966,69.9999,12.6659,268.9153,91.1666,-5.5495e-06,-1.59e-06,0.0,0 STARLINK-5603,1 55762U 23028X   24169.83075000 -.00000159  00000-0 -55495-5 0  9995,2 55762  69.9999  12.6659 0002966 268.9153  91.1666 14.98328951 72181,6950.196,96.107,574.123,570.0,0.0
